#cP2017  4 27  0  0  0.00000000      96 ORBIT IGS14 HLM  IGS
## 1946 345600.00000000   900.00000000 57870 0.0000000000000
+   32   G01G02G03G04G05G06G07G08G09G10G11G12G13G14G15G16G17
+        G18G19G20G21G22G23G24G25G26G27G28G29G30G31G32  0  0
+          0  0  0  0  0  0  0  0  0  0  0  0  0  0  0  0  0
+          0  0  0  0  0  0  0  0  0  0  0  0  0  0  0  0  0
+          0  0  0  0  0  0  0  0  0  0  0  0  0  0  0  0  0
++         2  2  2  0  2  2  2  2  3  2  2  2  2  2  2  2  2
++         2  2  2  2  2  2  2  3  2  3  2  2  2  2  2  0  0
++         0  0  0  0  0  0  0  0  0  0  0  0  0  0  0  0  0
++         0  0  0  0  0  0  0  0  0  0  0  0  0  0  0  0  0
++         0  0  0  0  0  0  0  0  0  0  0  0  0  0  0  0  0
%c G  cc GPS ccc cccc cccc cccc cccc ccccc ccccc ccccc ccccc
%c cc cc ccc ccc cccc cccc cccc cccc ccccc ccccc ccccc ccccc
%f  1.2500000  1.025000000  0.00000000000  0.000000000000000
%f  0.0000000  0.000000000  0.00000000000  0.000000000000000
%i    0    0    0    0      0      0      0      0         0
%i    0    0    0    0      0      0      0      0         0
/* RAPID ORBIT COMBINATION FROM WEIGHTED AVERAGE OF:        
/* cod emr esa gfz jpl ngs sio usn whu                      
/* REFERENCED TO IGS TIME (IGST) AND TO WEIGHTED MEAN POLE: 
/* PCV:IGS14_1930 OL/AL:FES2004  NONE     Y  ORB:CMB CLK:CMB
*  2017  4 27 21 45  0.00000000
PG01  13520.682779 -17244.997875  14705.735401     53.890746  8  5  7 115       
PG02 -14582.572493  -5503.420839 -21034.099118    430.895849  6  5  6 115       
PG03  21440.573839 -13540.542953  -7854.918049   -102.862368  7  7  7  96       
PG04  14028.156189   9850.537015 -20594.184018 999999.999999
PG05 -24198.576231    469.235466 -11254.238148    -48.640599 10  9  7  88       
PG06  -7686.915160 -19765.795056 -15955.687580    343.551111  7  7  6 104       
PG07   6821.815124 -25294.959028  -2410.318364    357.669781  8  7  8  87       
PG08  19651.564956    184.137958  17965.785239    -57.804411  6  7  5 105       
PG09    539.601715 -17750.334145 -19771.321437    351.712463  7  7  8 132       
PG10   6936.978746  13669.300210  21723.394258    -67.066539  3  6  4 116       
PG11  12882.872780 -12238.636312  19192.480565   -684.256311  8  5  6 129       
PG12 -24291.391337   9788.586461  -3809.247921    384.669549  6  6  4 109       
PG13 -20966.318542  -8718.316058  13618.199807    -79.689023  7  7  8 104       
PG14  18418.563464  19243.392804   1114.565892    -68.599420  4  8  9 123       
PG15 -18254.097939   4061.566664  18826.436402   -348.792751  7  8  6  77       
PG16  23894.218640   1629.294099 -12043.202105     32.200222  9 10  6 104       
PG17 -12967.529708 -21186.667141   9971.327397   -182.126047  9  7  8 113       
PG18  -3358.131226  17695.436557  20046.664861    612.684787  7  7  5  89       
PG19 -17686.678864 -19525.459926   1479.359720   -505.685700  8  7  8 115       
PG20 -23000.398935  12995.080572   2586.469921    470.007497  8  7  6  97       
PG21   -849.750973  26294.570022   3878.452494   -510.112909  8  6  7 111       
PG22  25060.045148  -8762.410126   1859.676055     27.730405  8  9  8 108       
PG23  12539.097976  -9501.235876 -21204.009694   -210.700298  9 10  7  70       
PG24 -14240.482411  14934.471521  16501.666340    -34.012468  7  2  5 109       
PG25 -14179.728851  16196.871657 -15557.982765   -377.549855  7  7  7  99       
PG26  17010.730577   7797.893888 -18886.849287   -509.915666  9  8  7 103       
PG27  22572.184014  10999.297967   8938.979917    248.037920 10  5  5 101       
PG28  -2308.652994 -14775.992113  22579.913706    608.353862  7  3  7 125       
PG29  -4047.188222  15623.464773 -21105.174716    609.026884  8  7  7  91       
PG30  -1504.063834 -24451.762408  10089.684230    158.106602  6  4  8 108       
PG31   8360.332655  18056.203389 -17325.018792    204.555823 10  8  4  65       
PG32  14652.780984  20331.555457   8885.515134   -397.775832  7  2  8 119       
*  2017  4 27 22  0  0.00000000
PG01  13427.816326 -15414.939943  16698.854925     53.891205  8  5  7 122       
PG02 -14288.758619  -7967.652186 -20481.608972    430.888941  7  5  6 123       
PG03  22223.623590 -13582.822437  -5130.625557   -102.860982  7  7  8 106       
PG04  11838.205377  10704.324013 -21508.901410 999999.999999
PG05 -22989.163808   -278.762793 -13557.195888    -48.638809 10  9  7 102       
PG06  -7270.312922 -21432.967767 -13863.287189    343.555604  7  7  6  97       
PG07   7022.517560 -24792.055828  -5249.604654    357.666315  8  8  8  92       
PG08  21097.694076   1484.268241  16179.035549    -57.805318  7  7  5  92       
PG09   2430.253931 -16407.991665 -20766.252208    351.719488  7  7  7 135       
PG10   4633.114097  14588.556232  21729.215479    -67.058876  3  6  4 114       
PG11  13593.064187  -9968.229652  19972.637106   -684.258746  7  5  6 127       
PG12 -24590.540979   9689.602762   -901.379148    384.669070  6  7  5  84       
PG13 -21848.608165  -9873.382593  11254.321350    -79.689576  8  7  8 108       
PG14  18069.563295  19239.977565   3945.436619    -68.601442  5  8  9 123       
PG15 -19897.720677   2743.735297  17389.132746   -348.793179  7  8  6  82       
PG16  22519.119226   2171.552417 -14368.681245     32.200893  9 10  6 121       
PG17 -11940.497867 -20497.308676  12459.483114   -182.124416  9  6  8 119       
PG18  -5365.480190  18433.295687  18856.954146    612.686249  8  7  5  96       
PG19 -17263.082299 -19438.485484   4359.022663   -505.684418  8  7  8 130       
PG20 -23297.007533  12751.306195   -195.316328    470.009230  8  8  7  94       
PG21  -1190.880187  26460.348720   1077.355798   -510.111082  8  6  7 111       
PG22  24889.050194  -8302.124922   4602.498179     27.719693  8  9  8 113       
PG23  14441.582274  -7966.728956 -20663.817933   -210.700850  9 10  8  88       
PG24 -14201.505348  12914.390336  18169.296554    -34.012754  7  3  5  95       
PG25 -15764.057361  16641.770185 -13371.885032   -377.555864  7  7  6  97       
PG26  14990.139684   8747.460577 -20133.742187   -509.912654  9  8  7 109       
PG27  23140.465124  11681.854820   6244.949189    248.043816 10  6  4  90       
PG28     10.693394 -15466.751005  22222.397542    608.356628  6  2  7 129       
PG29  -5905.458749  14031.780059 -21771.871832    609.024302  8  7  7  92       
PG30  -1027.541886 -25386.716805   7499.766019    158.105915  7  5  8 116       
PG31   7848.860313  19893.227092 -15422.924606    204.553600 10  7  4  92       
PG32  13599.615242  19799.636400  11403.951624   -397.785882  8  2  8 122       
*  2017  4 27 22 15  0.00000000
PG01  13411.491964 -13373.460123  18399.251327     53.891598  8  6  7 118       
PG02 -14119.156310 -10353.889770 -19562.553997    430.882116  8  6  6 116       
PG03  22719.196621 -13533.134332  -2317.889866   -102.859669  7  7  8 102       
PG04   9622.765084  11713.849679 -22062.674616 999999.999999
PG05 -21597.613177  -1194.172119 -15630.221998    -48.637352  9  8  7  95       
PG06  -6963.449763 -22869.788797 -11531.782393    343.560075  7  7  6 107       
PG07   7215.065793 -23981.488339  -7995.791662    357.662203  7  9  8  99       
PG08  22431.501312   2582.702120  14115.990247    -57.806512  8  7  5  99       
PG09   4462.977752 -15111.968553 -21404.555038    351.726519  6  7  7 138       
PG10   2397.627754  15618.122966  21361.948457    -67.051153  4  5  3 116       
PG11  14416.791525  -7661.307138  20392.122658   -684.261194  7  6  6 132       
PG12 -24586.324577   9482.549540   2022.188827    384.668130  6  8  5  83       
PG13 -22581.614365 -10793.209819   8695.116413    -79.690922  8  7  8 106       
PG14  17478.917798  19054.278977   6709.390131    -68.602515  6  8  9 130       
PG15 -21446.184461   1600.238346  15652.817258   -348.794115  8  8  6  96       
PG16  20945.460013   2880.533848 -16453.460122     32.201443 10 10  5 120       
PG17 -10666.922356 -19703.318616  14738.794932   -182.123058  8  6  8 127       
PG18  -7208.219902  19198.110413  17355.234000    612.688269  8  7  5  92       
PG19 -16585.780183 -19164.852109   7161.923932   -505.683151  8  7  8 131       
PG20 -23333.762966  12364.516782  -2973.753365    470.010640  9  8  7 109       
PG21  -1514.431112  26325.016895  -1742.316023   -510.109837  8  4  7 129       
PG22  24469.984862  -7696.931436   7266.812279     27.708728  9  9  8 122       
PG23  16346.153153  -6577.532972 -19763.157516   -210.701800  9 10  9  97       
PG24 -14252.016065  10724.833688  19519.671090    -34.011756  8  3  5  97       
PG25 -17087.019812  17061.870240 -10955.096648   -377.561880  7  7  6  99       
PG26  12911.534208   9853.734422 -21035.026357   -509.909610 10  7  8 109       
PG27  23490.124148  12155.367976   3444.665649    248.049698 11  6  4  85       
PG28   2231.646163 -16270.879451  21503.854371    608.359350  6  3  7 137       
PG29  -7891.988740  12511.596511 -22064.216647    609.021255  9  8  7 113       
PG30   -642.422954 -26046.631978   4779.763748    158.105203  8  5  9 103       
PG31   7460.895829  21524.597157 -13249.562251    204.551262 10  6  5 102       
PG32  12294.919705  19167.832001  13726.776415   -397.795956  8     8 131       
EOF
